NORAD_CAT_ID,OBJECT_NAME,OBJECT_TYPE,EPOCH,MEAN_MOTION,ECCENTRICITY,INCLINATION,RA_OF_ASC_NODE,ARG_OF_PERICENTER,MEAN_ANOMALY,BSTAR,MEAN_MOTION_DOT,MEAN_MOTION_DDOT,TLE_LINE0,TLE_LINE1,TLE_LINE2,SEMIMAJOR_AXIS,PERIOD,APOGEE,PERIGEE,DECAYED
52103.0,STARLINK-3705,PAYLOAD,2023-03-02 19:21:17,15.08876279,0.0001978,53.2183,350.1545,95.1471,264.9747,0.0016779,0.00026544,0.0,0 STARLINK-3705,1 52103U 22029R   23061.80645713  .00026544  00000-0  16779-2 0  9995,2 52103  53.2183 350.1545 0001978  95.1471 264.9747 15.08876279 54281,6917.77,95.435,541.003,538.266,0.0
52103.0,STARLINK-3705,PAYLOAD,2023-03-03 01:42:50,15.0887056,0.0001335,53.2185,348.9647,129.5356,230.5755,0.0020577,0.0003264,0.0,0 STARLINK-3705,1 52103U 22029R   23062.07141308  .00032640  00000-0  20577-2 0  9991,2 52103  53.2185 348.9647 0001335 129.5356 230.5755 15.08870560 54322,6917.787,95.436,540.576,538.728,0.0
52103.0,STARLINK-3705,PAYLOAD,2023-03-03 19:12:04,15.08859545,0.0001743,53.2199,345.6936,99.9045,260.2144,0.00051462,7.916e-05,0.0,0 STARLINK-3705,1 52103U 22029R   23062.80004988  .00007916  00000-0  51462-3 0  9990,2 52103  53.2199 345.6936 0001743  99.9045 260.2144 15.08859545 54434,6917.821,95.436,540.891,538.48,0.0
52103.0,STARLINK-3705,PAYLOAD,2023-03-04 01:33:36,15.08878025,0.0001182,53.219,344.5045,82.167,277.9457,0.0016876,0.000267,0.0,0 STARLINK-3705,1 52103U 22029R   23063.06500448  .00026700  00000-0  16876-2 0  9992,2 52103  53.2190 344.5045 0001182  82.1670 277.9457 15.08878025 54479,6917.764,95.435,540.447,538.811,0.0
52103.0,STARLINK-3705,PAYLOAD,2023-03-04 19:02:51,15.08840744,0.000131,53.219,341.2315,82.4169,277.6972,-6.277e-05,-1.287e-05,0.0,0 STARLINK-3705,1 52103U 22029R   23063.79364856 -.00001287  00000-0 -62770-4 0  9994,2 52103  53.2190 341.2315 0001310  82.4169 277.6972 15.08840744 54580,6917.878,95.438,540.649,538.837,0.0
52103.0,STARLINK-3705,PAYLOAD,2023-03-05 01:24:24,15.08831704,0.0001121,53.2183,340.0434,48.5394,311.5694,-0.00020748,-3.588e-05,0.0,0 STARLINK-3705,1 52103U 22029R   23064.05861284 -.00003588  00000-0 -20748-3 0  9995,2 52103  53.2183 340.0434 0001121  48.5394 311.5694 15.08831704 54624,6917.906,95.438,540.546,538.995,0.0
52103.0,STARLINK-3705,PAYLOAD,2023-03-05 22:04:25,15.08842422,0.0001194,53.2175,336.1777,38.2033,321.9043,0.00010801,1.432e-05,0.0,0 STARLINK-3705,1 52103U 22029R   23064.91973395  .00001432  00000-0  10801-3 0  9990,2 52103  53.2175 336.1777 0001194  38.2033 321.9043 15.08842422 54753,6917.873,95.437,540.564,538.912,0.0
52103.0,STARLINK-3705,PAYLOAD,2023-03-06 02:50:34,15.08864226,0.0001094,53.2186,335.2868,56.7245,303.3852,0.0013956,0.00022007,0.0,0 STARLINK-3705,1 52103U 22029R   23065.11845345  .00022007  00000-0  13956-2 0  9990,2 52103  53.2186 335.2868 0001094  56.7245 303.3852 15.08864226 54786,6917.806,95.436,540.428,538.915,0.0
52103.0,STARLINK-3705,PAYLOAD,2023-03-07 02:41:21,15.08858156,0.0001316,53.2168,330.8259,73.7995,286.3141,0.00074774,0.00011638,0.0,0 STARLINK-3705,1 52103U 22029R   23066.11205740  .00011638  00000-0  74774-3 0  9994,2 52103  53.2168 330.8259 0001316  73.7995 286.3141 15.08858156 54932,6917.825,95.436,540.6,538.78,0.0
52103.0,STARLINK-3705,PAYLOAD,2023-03-07 18:35:13,15.08840395,0.0001589,53.2163,327.8531,80.0589,280.0583,0.0011056,0.00017352,0.0,0 STARLINK-3705,1 52103U 22029R   23066.77445643  .00017352  00000-0  11056-2 0  9996,2 52103  53.2163 327.8531 0001589  80.0589 280.0583 15.08840395 55037,6917.879,95.438,540.843,538.645,0.0
52103.0,STARLINK-3705,PAYLOAD,2023-03-08 02:32:08,15.08870873,0.000154,53.2165,326.3661,94.1646,265.9522,0.0022632,0.00035945,0.0,0 STARLINK-3705,1 52103U 22029R   23067.10565067  .00035945  00000-0  22632-2 0  9997,2 52103  53.2165 326.3661 0001540  94.1646 265.9522 15.08870873 55088,6917.786,95.436,540.716,538.586,0.0
52103.0,STARLINK-3705,PAYLOAD,2023-03-08 16:50:37,15.08839375,0.0002542,53.2169,323.692,77.2747,282.853,0.00047489,7.278e-05,0.0,0 STARLINK-3705,1 52103U 22029R   23067.70182063  .00007278  00000-0  47489-3 0  9990,2 52103  53.2169 323.6920 0002542  77.2747 282.8530 15.08839375 55176,6917.882,95.438,541.506,537.989,0.0
52103.0,STARLINK-3705,PAYLOAD,2023-03-08 23:12:10,15.0883765,0.0001824,53.2174,322.5001,80.5784,279.5414,0.00085128,0.00013285,0.0,0 STARLINK-3705,1 52103U 22029R   23067.96678446  .00013285  00000-0  85128-3 0  9990,2 52103  53.2174 322.5001 0001824  80.5784 279.5414 15.08837650 55213,6917.888,95.438,541.014,538.491,0.0
52103.0,STARLINK-3705,PAYLOAD,2023-03-09 21:27:34,15.08860546,0.0001692,53.2175,318.3384,69.2467,290.8706,0.0014193,0.00022385,0.0,0 STARLINK-3705,1 52103U 22029R   23068.89414547  .00022385  00000-0  14193-2 0  9997,2 52103  53.2175 318.3384 0001692  69.2467 290.8706 15.08860546 55351,6917.818,95.436,540.853,538.512,0.0
52103.0,STARLINK-3705,PAYLOAD,2023-03-10 19:42:58,15.08839048,0.0001053,53.2166,314.1705,82.0815,278.0297,0.00015414,2.166e-05,0.0,0 STARLINK-3705,1 52103U 22029R   23069.82150596  .00002166  00000-0  15414-3 0  9995,2 52103  53.2166 314.1705 0001053  82.0815 278.0297 15.08839048 55494,6917.883,95.438,540.477,539.02,0.0
52103.0,STARLINK-3705,PAYLOAD,2023-03-10 21:18:21,15.08839676,0.0001265,53.2172,313.8729,99.5183,260.5952,0.00017232,2.456e-05,0.0,0 STARLINK-3705,1 52103U 22029R   23069.88774554  .00002456  00000-0  17232-3 0  9999,2 52103  53.2172 313.8729 0001265  99.5183 260.5952 15.08839676 55502,6917.881,95.438,540.621,538.871,0.0
52103.0,STARLINK-3705,PAYLOAD,2023-03-11 02:04:30,15.0884025,0.0001366,53.2174,312.9819,107.2308,252.8834,0.0001394,1.931e-05,0.0,0 STARLINK-3705,1 52103U 22029R   23070.08646592  .00001931  00000-0  13940-3 0  9992,2 52103  53.2174 312.9819 0001366 107.2308 252.8834 15.08840250 55538,6917.88,95.438,540.69,538.8,0.0
52103.0,STARLINK-3705,PAYLOAD,2023-03-12 00:19:54,15.08848956,0.0001395,53.2177,308.8186,120.8921,239.2209,0.00040642,6.188e-05,0.0,0 STARLINK-3705,1 52103U 22029R   23071.01382290  .00006188  00000-0  40642-3 0  9996,2 52103  53.2177 308.8186 0001395 120.8921 239.2209 15.08848956 55677,6917.853,95.437,540.683,538.753,0.0
52103.0,STARLINK-3705,PAYLOAD,2023-03-13 01:46:04,15.08842758,0.000111,53.2174,304.0608,138.8592,221.2483,0.00014486,2.019e-05,0.0,0 STARLINK-3705,1 52103U 22029R   23072.07366480  .00002019  00000-0  14486-3 0  9992,2 52103  53.2174 304.0608 0001110 138.8592 221.2483 15.08842758 55836,6917.872,95.437,540.505,538.969,0.0
52103.0,STARLINK-3705,PAYLOAD,2023-03-13 22:26:05,15.08837535,9.98e-05,53.2168,300.1954,128.917,231.1911,6.5358e-05,7.53e-06,0.0,0 STARLINK-3705,1 52103U 22029R   23072.93478686  .00000753  00000-0  65358-4 0  9997,2 52103  53.2168 300.1954 0000998 128.9170 231.1911 15.08837535 55962,6917.888,95.438,540.443,539.063,0.0
52103.0,STARLINK-3705,PAYLOAD,2023-03-14 00:01:28,15.08837651,0.0001086,53.2169,299.898,102.4989,257.6125,0.00010184,1.333e-05,0.0,0 STARLINK-3705,1 52103U 22029R   23073.00102901  .00001333  00000-0  10184-3 0  9991,2 52103  53.2169 299.8980 0001086 102.4989 257.6125 15.08837651 55970,6917.888,95.438,540.504,539.001,0.0
52103.0,STARLINK-3705,PAYLOAD,2023-03-14 14:19:57,15.08840333,0.0001076,53.2161,297.2219,112.4897,247.6209,0.00013536,1.867e-05,0.0,0 STARLINK-3705,1 52103U 22029R   23073.59719226  .00001867  00000-0  13536-3 0  9995,2 52103  53.2161 297.2219 0001076 112.4897 247.6209 15.08840333 56061,6917.879,95.438,540.489,539.0,0.0
52103.0,STARLINK-3705,PAYLOAD,2023-03-14 15:55:20,15.08840089,0.0001263,53.2152,296.9255,113.7762,246.3362,0.00029637,4.432e-05,0.0,0 STARLINK-3705,1 52103U 22029R   23073.66343290  .00004432  00000-0  29637-3 0  9997,2 52103  53.2152 296.9255 0001263 113.7762 246.3362 15.08840089 56075,6917.88,95.438,540.619,538.871,0.0
52103.0,STARLINK-3705,PAYLOAD,2023-03-14 23:52:15,15.08853423,0.0001043,53.2161,295.4395,89.3503,270.7608,0.00043372,6.624e-05,0.0,0 STARLINK-3705,1 52103U 22029R   23073.99462797  .00006624  00000-0  43372-3 0  9994,2 52103  53.2161 295.4395 0001043  89.3503 270.7608 15.08853423 56127,6917.839,95.437,540.426,538.983,0.0
52103.0,STARLINK-3705,PAYLOAD,2023-03-15 20:32:16,15.08846633,0.0001104,53.2158,291.5738,86.4562,273.6556,0.00026532,3.938e-05,0.0,0 STARLINK-3705,1 52103U 22029R   23074.85575074  .00003938  00000-0  26532-3 0  9997,2 52103  53.2158 291.5738 0001104  86.4562 273.6556 15.08846633 56255,6917.86,95.437,540.489,538.961,0.0
52103.0,STARLINK-3705,PAYLOAD,2023-03-15 22:07:39,15.08850379,0.0001174,53.2162,291.2763,83.8561,276.2565,0.00037909,5.752e-05,0.0,0 STARLINK-3705,1 52103U 22029R   23074.92198982  .00005752  00000-0  37909-3 0  9990,2 52103  53.2162 291.2763 0001174  83.8561 276.2565 15.08850379 56264,6917.849,95.437,540.526,538.902,0.0
52103.0,STARLINK-3705,PAYLOAD,2023-03-16 14:01:31,15.08837639,0.0001241,53.2163,288.3036,79.3865,280.7267,7.4027e-05,8.9e-06,0.0,0 STARLINK-3705,1 52103U 22029R   23075.58439352  .00000890  00000-0  74027-4 0  9993,2 52103  53.2163 288.3036 0001241  79.3865 280.7267 15.08837639 56361,6917.888,95.438,540.611,538.894,0.0
52103.0,STARLINK-3705,PAYLOAD,2023-03-16 20:23:03,15.08841393,0.0001154,53.216,287.1132,95.8109,264.3015,5.1895e-05,5.38e-06,0.0,0 STARLINK-3705,1 52103U 22029R   23075.84935071  .00000538  00000-0  51895-4 0  9998,2 52103  53.2160 287.1132 0001154  95.8109 264.3015 15.08841393 56405,6917.876,95.437,540.539,538.943,0.0
52103.0,STARLINK-3705,PAYLOAD,2023-03-17 07:30:46,15.08836931,0.0001029,53.2166,285.0315,103.6285,256.4822,2.8263e-05,1.62e-06,0.0,0 STARLINK-3705,1 52103U 22029R   23076.31303318  .00000162  00000-0  28263-4 0  9990,2 52103  53.2166 285.0315 0001029 103.6285 256.4822 15.08836931 56472,6917.89,95.438,540.467,539.043,0.0
52103.0,STARLINK-3705,PAYLOAD,2023-03-17 20:13:51,15.08839676,0.0001194,53.2163,282.6528,97.8327,262.2801,-1.9604e-05,-6e-06,0.0,0 STARLINK-3705,1 52103U 22029R   23076.84295427 -.00000600  00000-0 -19604-4 0  9997,2 52103  53.2163 282.6528 0001194  97.8327 262.2801 15.08839676 56552,6917.881,95.438,540.572,538.92,0.0
